[{
    "HospitalName":"A.C.HOSPITAL",
    "HospitalID":"HOS-CHE-1150",
    "Category":"GENERAL HOSPITAL",
    "Zone":"SOUTH",
    "State":"TAMILNADU",
    "City":"SALEM",
    "Address":"104,2ND AGRAHARAM,NEAR OLD BUS STAND",
    "Pincode":"636001",
    "Phone1":"(0427)2260577/2267957"
 },
 {
    "HospitalName":"APPUSAMI HOSPITAL",
    "HospitalID":"HOS-COM-1871",
    "Category":"GENERAL HOSPITAL",
    "Zone":"SOUTH",
    "State":"TAMILNADU",
    "City":"SALEM",
    "Address":"104,2ND AGRAHARAM,NEAR OLD BUS STAND",
    "Pincode":"636007",
    "Phone1":"(0472)2316167/68"
 },
 {
	"HospitalName":"C.K.R. HOSPITAL",
    "HospitalID":"HOS-CHN-5059",
    "Category":"NURSING HOME",
    "Zone":"SOUTH",
    "State":"TAMILNADU",
    "City":"SALEM",
    "Address":"56,A/1,RAJAJI ROAD,NEAR SRI SARADA BALA MANDIR BOYS MATRIC HR.SEC SCHOOL",
    "Pincode":"636007",
    "Phone1":"0427-2316662"
 },
 {
	"HospitalName":"CHELLAM HOSPITAL",
    "HospitalID":"HOS-CHE-302",
    "Category":"GENERAL HOSPITAL",
    "Zone":"SOUTH",
    "State":"TAMILNADU",
    "City":"SALEM",
    "Address":"3-C VIJAYARAGHAVACHARI ROAD",
    "Pincode":"636007",
    "Phone1":"0427-2319395"
 },
 {
	"HospitalName":"DHARAN HOSPITAL",
    "HospitalID":"HOS-COM-4016",
    "Category":"GENERAL HOSPITAL",
    "Zone":"SOUTH",
    "State":"TAMILNADU",
    "City":"SALEM",
    "Address":"SEELA NAICKEN PATTI BYR PASS. ON A NATIONAL HIGHWAY",
    "Pincode":"636201",
    "Phone1":"0427-2281717/2281599/1699"
 },
 {
	"HospitalName":"DR.AGARWAL'S EYE HOSPITAL LTD",
    "HospitalID":"HOS-CHN-5151",
    "Category":"SINGLE SPECIALITY EYE",
    "Zone":"SOUTH",
    "State":"TAMILNADU",
    "City":"SALEM",
    "Address":"NO114/7, GANDHI ROAD",
    "Pincode":"636007",
    "Phone1":"0427-2319993"
 },
 {
	"HospitalName":"DR.GEETH RAGHUNATH HOSPITAL",
    "HospitalID":"HOS-COM-372",
    "Category":"SINGLE SPECIALITY EYE",
    "Zone":"SOUTH",
    "State":"TAMILNADU",
    "City":"SALEM",
    "Address":"NO.2,GANDHINAGAR,ATTUR",
    "Pincode":"636102",
    "Phone1":"04282-240447/243381/240556/9842770556 F:04282-250062"
 },
 {
	"HospitalName":"DR.HANEEFA POLYCLINIC & NURSING HOME",
    "HospitalID":"HOS-COM-1467",
    "Category":"GENERAL HOSPITAL",
    "Zone":"SOUTH",
    "State":"TAMILNADU",
    "City":"SALEM",
    "Address":"OLD 149,NEW # 264, CHERRY ROAD",
    "Pincode":"636001",
    "Phone1":"0427-2451990"
 },
{
	"HospitalName":"ENT CARE CENTRE",
    "HospitalID":"HOS-COM-3519",
    "Category":"NURSING HOME",
    "Zone":"SOUTH",
    "State":"TAMILNADU",
    "City":"SALEM",
    "Address":"OPP NEW BUS STAND, NEAR NALYANA MAALIGAI",
    "Pincode":"636004",
    "Phone1":"0427-4030040"
 },
 {
	"HospitalName":"HARAN HEALTHCARE SERVICE P) LTD",
    "HospitalID":"HOS-COM-922",
    "Category":"GENERAL HOSPITAL",
    "Zone":"SOUTH",
    "State":"TAMILNADU",
    "City":"SALEM",
    "Address":"FIVE ROADS, SALEM.",
    "Pincode":"636004",
    "Phone1":"0427-2442286"
 },
 {
	"HospitalName":"A.R.HOSPITALÂ ",
    "HospitalID":"HOS-CHE-0",
    "Category":"GENERAL HOSPITAL",
    "Zone":"SOUTH",
    "State":"TAMILNADU",
    "City":"MADURAI",
    "Address":"609, K.K.NAGAR",
    "Pincode":"625020",
    "Phone1":"0452-2586121,2586630"
 },
 {
	"HospitalName":"ANBU HOSPITAL",
    "HospitalID":"HOS-COM-3630",
    "Category":"GENERAL HOSPITAL",
    "Zone":"SOUTH",
    "State":"TAMILNADU",
    "City":"MADURAI",
    "Address":"NO.150/1,KAMARAJAR SALAI",
    "Pincode":"625009",
    "Phone1":"0452-2311559/2310257/2310043/9843973433"
 },
 {
	"HospitalName":"APOLLO SPECIALITY HOSPITAL",
    "HospitalID":"HOS-COM-616",
    "Category":"GENERAL HOSPITAL",
    "Zone":"SOUTH",
    "State":"TAMILNADU",
    "City":"MADURAI",
    "Address":"20,LAKE VIEW ROAD, KK NAGAR",
    "Pincode":"625020",
    "Phone1":"(0452)2580892/94/2581148"
 },
 {
	"HospitalName":"ARAVIND EYE HOSPITAL- MADHURAI",
    "HospitalID":"HOS-COM-1065",
    "Category":"SINGLE SPECIALITY EYE",
    "Zone":"SOUTH",
    "State":"TAMILNADU",
    "City":"MADURAI",
    "Address":"1- ANNA NAGAR",
    "Pincode":"625020",
    "Phone1":"0452-4356100"
 },
 {
	"HospitalName":"ARTHUR ASIRVATHAM HOSPITAL",
    "HospitalID":"HOS-CHE-3815",
    "Category":"SINGLE SPECIALITY EYE",
    "Zone":"SOUTH",
    "State":"TAMILNADU",
    "City":"MADURAI",
    "Address":"NO.42-A,KURUVIKARAN SALAI,ANNA BUS STAND",
    "Pincode":"625020",
    "Phone1":"0452-2535266/4392237/9443751977"
 },
 {
	"HospitalName":"ARUN HOSPITAL",
    "HospitalID":"HOS-CHN-5314",
    "Category":"NURSING HOME",
    "Zone":"SOUTH",
    "State":"TAMILNADU",
    "City":"MADURAI",
    "Address":"186, MUNICHALAI ROAD, NEAR VETRILAI PETTAI",
    "Pincode":"625009",
    "Phone1":"0452-2620375"
 },
 {
	"HospitalName":"AVSS HOSPITALS (ADVANCED TRAUMA CENTRE)",
    "HospitalID":"HOS-CHE-4325",
    "Category":"NURSING HOME",
    "Zone":"SOUTH",
    "State":"TAMILNADU",
    "City":"MADURAI",
    "Address":"# 32A,KURUVIKKARAN SALAI",
    "Pincode":"625009",
    "Phone1":"0452-2326111/112/4383112"
 },
 {
	"HospitalName":"BGM HOSPITAL",
    "HospitalID":"HOS-CHN-5772",
    "Category":"NURSING HOME",
    "Zone":"SOUTH",
    "State":"TAMILNADU",
    "City":"MADURAI",
    "Address":"#249, NEW NATHAM ROAD IYYER BUNGALOW BUS STOP",
    "Pincode":"625014",
    "Phone1":"0452-2681192"
 },	 
 {
	"HospitalName":"CHANDRA HOSPITAL",
    "HospitalID":"HOS-CHE-4623",
    "Category":"GENERAL HOSPITAL",
    "Zone":"SOUTH",
    "State":"TAMILNADU",
    "City":"MADURAI",
    "Address":"# 10, PILLAYARPALAYAM ROAD",
    "Pincode":"625001",
    "Phone1":"0452-2337883/4522001"
 },	
{
	"HospitalName":"CHRISTIAN HOSPITAL",
    "HospitalID":"HOS-COM-973",
    "Category":"GENERAL HOSPITAL",
    "Zone":"SOUTH",
    "State":"TAMILNADU",
    "City":"MADURAI",
    "Address":"VAIGAI DAM ROAD, PERIYAKULAM,",
    "Pincode":"625001",
    "Phone1":"(04546)231308/231208"
 }
 ]